{
    "links": {
        "self": "http://www.neowsapp.com/rest/v1/neo/3432640?api_key=iIulBulltgU6a56xZRHN4H3l9WmuAYTsLGpBGhQ2"
    },
    "id": "3432640",
    "neo_reference_id": "3432640",
    "name": "(2008 UU)",
    "designation": "2008 UU",
    "nasa_jpl_url": "http://ssd.jpl.nasa.gov/sbdb.cgi?sstr=3432640",
    "absolute_magnitude_h": 24.7,
    "estimated_diameter": {
        "kilometers": {
            "estimated_diameter_min": 0.0305179233,
            "estimated_diameter_max": 0.0682401509
        },
        "meters": {
            "estimated_diameter_min": 30.5179232594,
            "estimated_diameter_max": 68.2401509401
        },
        "miles": {
            "estimated_diameter_min": 0.0189629525,
            "estimated_diameter_max": 0.0424024508
        },
        "feet": {
            "estimated_diameter_min": 100.1244233463,
            "estimated_diameter_max": 223.8850168104
        }
    },
    "is_potentially_hazardous_asteroid": false,
    "close_approach_data": [
        {
            "close_approach_date": "2008-11-02",
            "close_approach_date_full": "2008-Nov-02 22:05",
            "epoch_date_close_approach": 1225663500000,
            "relative_velocity": {
                "kilometers_per_second": "9.9547206735",
                "kilometers_per_hour": "35836.9944246938",
                "miles_per_hour": "22267.7146746104"
            },
            "miss_distance": {
                "astronomical": "0.1010877937",
                "lunar": "39.3231517493",
                "kilometers": "15122518.620519419",
                "miles": "9396697.3401452222"
            },
            "orbiting_body": "Earth"
        }
    ],
    "orbital_data": {
        "orbit_id": "9",
        "orbit_determination_date": "2017-04-06 09:02:31",
        "first_observation_date": "2008-10-21",
        "last_observation_date": "2008-10-27",
        "data_arc_in_days": 6,
        "observations_used": 26,
        "orbit_uncertainty": "9",
        "minimum_orbit_intersection": ".10094",
        "jupiter_tisserand_invariant": "3.006",
        "epoch_osculation": "2454763.5",
        "eccentricity": ".6128024216145189",
        "semi_major_axis": "2.764516381409913",
        "inclination": "12.68289606551911",
        "ascending_node_longitude": "31.42405576436952",
        "orbital_period": "1678.909082225259",
        "perihelion_distance": "1.070414048288911",
        "perihelion_argument": "25.20138906440543",
        "aphelion_distance": "4.458618714530914",
        "perihelion_time": "2454787.124902045761",
        "mean_anomaly": "354.934231503947",
        "mean_motion": ".214424952376128",
        "equinox": "J2000",
        "orbit_class": {
            "orbit_class_type": "AMO",
            "orbit_class_description": "Near-Earth asteroid orbits similar to that of 1221 Amor",
            "orbit_class_range": "1.017 AU < q (perihelion) < 1.3 AU"
        }
    },
    "is_sentry_object": false
}